NORAD_CAT_ID,OBJECT_NAME,OBJECT_TYPE,EPOCH,MEAN_MOTION,ECCENTRICITY,INCLINATION,RA_OF_ASC_NODE,ARG_OF_PERICENTER,MEAN_ANOMALY,BSTAR,MEAN_MOTION_DOT,MEAN_MOTION_DDOT,TLE_LINE0,TLE_LINE1,TLE_LINE2,SEMIMAJOR_AXIS,PERIOD,APOGEE,PERIGEE,DECAYED
52471.0,STARLINK-3862,PAYLOAD,2023-02-19 15:04:57,15.08858222,0.0001348,53.2176,20.3335,82.8822,277.2323,0.00027179,4.042e-05,0.0,0 STARLINK-3862,1 52471U 22049W   23050.62844282  .00004042  00000-0  27179-3 0  9991,2 52471  53.2176  20.3335 0001348  82.8822 277.2323 15.08858222 44226,6917.825,95.436,540.622,538.757,0.0
52471.0,STARLINK-3862,PAYLOAD,2023-02-20 06:58:48,15.08852459,0.0001143,53.217,17.363,80.5726,279.5395,0.00055387,8.541e-05,0.0,0 STARLINK-3862,1 52471U 22049W   23051.29084185  .00008541  00000-0  55387-3 0  9993,2 52471  53.2170  17.3630 0001143  80.5726 279.5395 15.08852459 44326,6917.842,95.437,540.498,538.917,0.0
52471.0,STARLINK-3862,PAYLOAD,2023-02-20 14:55:44,15.08843523,0.0001144,53.2182,15.8742,86.4614,273.6509,0.00044385,6.784e-05,0.0,0 STARLINK-3862,1 52471U 22049W   23051.62204440  .00006784  00000-0  44385-3 0  9991,2 52471  53.2182  15.8742 0001144  86.4614 273.6509 15.08843523 44377,6917.87,95.437,540.526,538.943,0.0
52471.0,STARLINK-3862,PAYLOAD,2023-02-21 06:49:35,15.08850704,0.0001341,53.2188,12.899,88.3732,271.7413,0.00052883,8.141e-05,0.0,0 STARLINK-3862,1 52471U 22049W   23052.28444402  .00008141  00000-0  52883-3 0  9999,2 52471  53.2188  12.8990 0001341  88.3732 271.7413 15.08850704 44312,6917.848,95.437,540.64,538.785,0.0
52471.0,STARLINK-3862,PAYLOAD,2023-02-21 14:46:31,15.08847421,7.7e-05,53.2191,11.4131,113.8388,246.2685,0.00040396,6.148e-05,0.0,0 STARLINK-3862,1 52471U 22049W   23052.61564276  .00006148  00000-0  40396-3 0  9999,2 52471  53.2191  11.4131 0000770 113.8388 246.2685 15.08847421 44527,6917.858,95.437,540.255,539.19,0.0
52471.0,STARLINK-3862,PAYLOAD,2023-02-22 06:40:22,15.08863294,0.0001274,53.2185,8.44,103.1959,256.9175,0.00083805,0.00013083,0.0,0 STARLINK-3862,1 52471U 22049W   23053.27803931  .00013083  00000-0  83805-3 0  9994,2 52471  53.2185   8.4400 0001274 103.1959 256.9175 15.08863294 44462,6917.809,95.436,540.556,538.793,0.0
52471.0,STARLINK-3862,PAYLOAD,2023-02-23 06:31:10,15.08843279,7.29e-05,53.2191,3.9812,77.7467,282.3607,0.00081341,0.00012682,0.0,0 STARLINK-3862,1 52471U 22049W   23054.27165024  .00012682  00000-0  81341-3 0  9996,2 52471  53.2191   3.9812 0000729  77.7467 282.3607 15.08843279 44778,6917.87,95.437,540.24,539.231,0.0
52471.0,STARLINK-3862,PAYLOAD,2023-02-24 04:46:33,15.08877982,7.51e-05,53.2193,359.8185,79.3978,280.7099,0.0014469,0.00022838,0.0,0 STARLINK-3862,1 52471U 22049W   23055.19900150  .00022838  00000-0  14469-2 0  9995,2 52471  53.2193 359.8185 0000751  79.3978 280.7099 15.08877982 44759,6917.764,95.435,540.149,539.11,0.0
52471.0,STARLINK-3862,PAYLOAD,2023-02-24 20:40:27,15.08763495,9.38e-05,53.2183,356.8447,60.3712,299.7374,-0.0024962,-0.00039712,0.0,0 STARLINK-3862,1 52471U 22049W   23055.86142663 -.00039712  00000-0 -24962-2 0  9996,2 52471  53.2183 356.8447 0000938  60.3712 299.7374 15.08763495 45018,6918.114,95.442,540.628,539.33,0.0
52471.0,STARLINK-3862,PAYLOAD,2023-02-25 04:37:25,15.08709638,0.0001169,53.2181,355.3592,64.5197,295.5916,0.00084141,0.00013081,0.0,0 STARLINK-3862,1 52471U 22049W   23056.19265890  .00013081  00000-0  84141-3 0  9996,2 52471  53.2181 355.3592 0001169  64.5197 295.5916 15.08709638 45061,6918.279,95.446,540.953,539.335,0.0
52471.0,STARLINK-3862,PAYLOAD,2023-02-26 04:28:12,15.08900568,0.0001022,53.2176,350.8986,98.2021,261.9087,0.0017813,0.00028222,0.0,0 STARLINK-3862,1 52471U 22049W   23057.18625734  .00028222  00000-0  17813-2 0  9997,2 52471  53.2176 350.8986 0001022  98.2021 261.9087 15.08900568 45218,6917.695,95.434,540.267,538.853,0.0
52471.0,STARLINK-3862,PAYLOAD,2023-02-26 06:03:35,15.08906537,9.49e-05,53.2175,350.6012,96.8902,263.2198,0.0017277,0.00027366,0.0,0 STARLINK-3862,1 52471U 22049W   23057.25249412  .00027366  00000-0  17277-2 0  9992,2 52471  53.2175 350.6012 0000949  96.8902 263.2198 15.08906537 45067,6917.677,95.433,540.199,538.886,0.0
52471.0,STARLINK-3862,PAYLOAD,2023-02-27 04:18:55,15.08941489,0.0001251,53.2166,346.4382,82.7214,277.392,0.0019565,0.00031074,0.0,0 STARLINK-3862,1 52471U 22049W   23058.17980920  .00031074  00000-0  19565-2 0  9993,2 52471  53.2166 346.4382 0001251  82.7214 277.3920 15.08941489 45364,6917.57,95.431,540.301,538.57,0.0
52471.0,STARLINK-3862,PAYLOAD,2023-02-27 18:37:27,15.08770304,0.0001888,53.2172,343.76,148.4002,211.7104,0.0017687,0.00027919,0.0,0 STARLINK-3862,1 52471U 22049W   23058.77601653  .00027919  00000-0  17687-2 0  9998,2 52471  53.2172 343.7600 0001888 148.4002 211.7104 15.08770304 45457,6918.093,95.442,541.265,538.652,0.0
52471.0,STARLINK-3862,PAYLOAD,2023-02-28 05:45:26,15.08206912,0.0001868,53.2177,341.6766,122.1927,237.9247,-0.0071105,-0.00109818,0.0,0 STARLINK-3862,1 52471U 22049W   23059.23989298 -.00109818  00000-0 -71105-2 0  9990,2 52471  53.2177 341.6766 0001868 122.1927 237.9247 15.08206912 45520,6919.816,95.478,542.974,540.389,0.0
52471.0,STARLINK-3862,PAYLOAD,2023-02-28 18:28:56,15.08033784,0.0001352,53.2171,339.3047,69.5744,290.5392,0.00050179,7.535e-05,0.0,0 STARLINK-3862,1 52471U 22049W   23059.77010224  .00007535  00000-0  50179-3 0  9993,2 52471  53.2171 339.3047 0001352  69.5744 290.5392 15.08033784 45441,6920.346,95.489,543.146,541.275,0.0
52471.0,STARLINK-3862,PAYLOAD,2023-03-01 00:50:41,15.08039321,0.0001278,53.2174,338.1174,60.0329,300.079,-0.0011048,-0.00017447,0.0,0 STARLINK-3862,1 52471U 22049W   23060.03520285 -.00017447  00000-0 -11048-2 0  9993,2 52471  53.2174 338.1174 0001278  60.0329 300.0790 15.08039321 45648,6920.329,95.488,543.078,541.309,0.0
52471.0,STARLINK-3862,PAYLOAD,2023-03-01 05:36:59,15.08082036,0.0001943,53.2176,337.2228,68.6716,291.4483,0.00098792,0.00015148,0.0,0 STARLINK-3862,1 52471U 22049W   23060.23402439  .00015148  00000-0  98792-3 0  9991,2 52471  53.2176 337.2228 0001943  68.6716 291.4483 15.08082036 45679,6920.198,95.486,543.408,540.719,0.0
52471.0,STARLINK-3862,PAYLOAD,2023-03-01 21:31:08,15.08371872,0.0002165,53.2182,334.2513,67.8296,292.2926,0.0076116,0.00121382,0.0,0 STARLINK-3862,1 52471U 22049W   23060.89662051  .00121382  00000-0  76116-2 0  9994,2 52471  53.2182 334.2513 0002165  67.8296 292.2926 15.08371872 45615,6919.312,95.467,542.675,539.679,0.0
52471.0,STARLINK-3862,PAYLOAD,2023-03-02 06:00:00,15.08811256,0.0001036,53.2166,332.6662,77.5795,43.2077,0.001441,0.00022702,0.0,0 STARLINK-3862,1 52471U 22049W   23061.25001157  .00022702  00000-0  14410-2 0  9994,2 52471  53.2166 332.6662 0001036  77.5795  43.2077 15.08811256 45821,6917.968,95.439,540.55,539.117,0.0
52471.0,STARLINK-3862,PAYLOAD,2023-03-02 18:11:10,15.08746146,0.0001167,53.2173,330.388,65.8446,294.2668,0.0050796,0.00081278,0.0,0 STARLINK-3862,1 52471U 22049W   23061.75775736  .00081278  00000-0  50796-2 0  9990,2 52471  53.2173 330.3880 0001167  65.8446 294.2668 15.08746146 45744,6918.167,95.443,540.84,539.225,0.0
52471.0,STARLINK-3862,PAYLOAD,2023-03-03 03:43:28,15.08809991,9.88e-05,53.2174,328.6026,76.6497,283.4605,0.0019918,0.00031528,0.0,0 STARLINK-3862,1 52471U 22049W   23062.15518605  .00031528  00000-0  19918-2 0  9999,2 52471  53.2174 328.6026 0000988  76.6497 283.4605 15.08809991 45966,6917.972,95.439,540.521,539.154,0.0
52471.0,STARLINK-3862,PAYLOAD,2023-03-03 21:12:41,15.08849456,8.68e-05,53.2169,325.3327,77.8107,282.2982,0.00061475,9.512e-05,0.0,0 STARLINK-3862,1 52471U 22049W   23062.88381476  .00009512  00000-0  61475-3 0  9997,2 52471  53.2169 325.3327 0000868  77.8107 282.2982 15.08849456 46074,6917.851,95.437,540.317,539.116,0.0
52471.0,STARLINK-3862,PAYLOAD,2023-03-04 14:00:01,15.08771918,0.0001113,53.2166,322.19,81.3649,120.634,0.0034181,0.00054429,0.0,0 STARLINK-3862,1 52471U 22049W   23063.58334491  .00054429  00000-0  34181-2 0  9990,2 52471  53.2166 322.1900 0001113  81.3649 120.6340 15.08771918  1305,6918.088,95.442,540.723,539.184,0.0
52471.0,STARLINK-3862,PAYLOAD,2023-03-04 16:00:00,15.08768674,0.0001173,53.2168,321.8158,87.3756,207.5076,0.0049197,0.0007873,0.0,0 STARLINK-3862,1 52471U 22049W   23063.66667824  .00078730  00000-0  49197-2 0  9992,2 52471  53.2168 321.8158 0001173  87.3756 207.5076 15.08768674 46191,6918.098,95.442,540.775,539.152,0.0
52471.0,STARLINK-3862,PAYLOAD,2023-03-05 00:14:14,15.0886263,0.0002189,53.2161,320.2719,81.3033,278.8207,0.0015013,0.00023701,0.0,0 STARLINK-3862,1 52471U 22049W   23064.00989014  .00023701  00000-0  15013-2 0  9997,2 52471  53.2161 320.2719 0002189  81.3033 278.8207 15.08862630 46082,6917.811,95.436,541.191,538.162,0.0
52471.0,STARLINK-3862,PAYLOAD,2023-03-05 22:29:38,15.08847501,0.000121,53.216,316.1134,78.9652,281.1476,0.0008057,0.00012561,0.0,0 STARLINK-3862,1 52471U 22049W   23064.93725213  .00012561  00000-0  80570-3 0  9991,2 52471  53.2160 316.1134 0001210  78.9652 281.1476 15.08847501 46387,6917.857,95.437,540.56,538.885,0.0
52471.0,STARLINK-3862,PAYLOAD,2023-03-06 03:15:47,15.08896219,0.0001089,53.216,315.2204,80.8842,279.2273,0.0028349,0.00045189,0.0,0 STARLINK-3862,1 52471U 22049W   23065.13596462  .00045189  00000-0  28349-2 0  9993,2 52471  53.2160 315.2204 0001089  80.8842 279.2273 15.08896219 46419,6917.709,95.434,540.327,538.82,0.0
52471.0,STARLINK-3862,PAYLOAD,2023-03-06 15:58:53,15.08835247,0.0002325,53.2156,312.8428,92.4563,267.6695,0.001769,0.00027975,0.0,0 STARLINK-3862,1 52471U 22049W   23065.66589609  .00027975  00000-0  17690-2 0  9996,2 52471  53.2156 312.8428 0002325  92.4563 267.6695 15.08835247 46499,6917.895,95.438,541.368,538.152,0.0
52471.0,STARLINK-3862,PAYLOAD,2023-03-07 15:49:40,15.08855818,0.0001634,53.2143,308.3818,66.9995,293.1169,0.0018889,0.00029915,0.0,0 STARLINK-3862,1 52471U 22049W   23066.65950054  .00029915  00000-0  18889-2 0  9999,2 52471  53.2143 308.3818 0001634  66.9995 293.1169 15.08855818 46648,6917.832,95.437,540.827,538.567,0.0
